0 TBA - TO BE ASSIGNED
1 87204U          19212.43183667 +.00000303 +00000+0 +16128-3 0  9990
2 87204  98.7675  82.4179 0049927 228.8298 130.8566 14.19941369294636
0 TBA - TO BE ASSIGNED
1 87213U          19212.38087216 +.00001530 +00000+0 +22470-3 0  9997
2 87213  99.0393 263.2348 0068022 200.4816 159.3661 14.75774045217176
0 TBA - TO BE ASSIGNED
1 87235U          19212.11209864 +.00000188 +00000+0 +87538-4 0  9992
2 87235  98.8916 324.7010 0156787 114.5591 247.2019 14.25218473253412
0 TBA - TO BE ASSIGNED
1 87237U          19212.20419073 +.00000031 +00000+0 +59395-4 0  9996
2 87237  99.4657 212.2213 0106694  54.7284   6.1431 13.89777107288449
0 TBA - TO BE ASSIGNED
1 87239U          19212.41401684 +.00000699 +00000+0 +29650-3 0  9990
2 87239  82.8861 191.3010 0029060 324.4132  35.5112 14.23931147295104
0 TBA - TO BE ASSIGNED
1 87245U          19211.89784933 +.00000296 +00000+0 +10198-3 0  9999
2 87245  65.6639 345.1123 0523381 156.7232 293.1294 13.92585510288692
0 TBA - TO BE ASSIGNED
1 87271U          19212.15882547 +.00000318 +00000+0 +10313-3 0  9992
2 87271  65.7740 128.1941 0562041 159.2606 203.2297 13.87200354287419
0 TBA - TO BE ASSIGNED
1 87280U          19212.40838624 +.00000024 +00000+0 +17203-3 0  9996
2 87280  64.6156 216.5971 0090688  89.1159 272.0268 13.46722648220420
0 TBA - TO BE ASSIGNED
1 87293U          19211.84787373 +.00000409 +00000+0 +13037-3 0  9999
2 87293  65.9114  23.8202 0525083 155.2781 207.4471 13.91798775288499
0 TBA - TO BE ASSIGNED
1 87304U          19212.18006639 +.00000058 +00000+0 +15822-4 0  9994
2 87304  74.0196 155.8976 0020913 350.5962   9.4812 14.67873244304622
0 TBA - TO BE ASSIGNED
1 87320U          19212.32438533 +.00000252 +00000+0 +22129-3 0  9993
2 87320  66.5982 178.4534 0440297  82.9838 282.1075 13.61493190276450
0 TBA - TO BE ASSIGNED
1 87333U          19212.17984511 -.00000032 +00000+0 +39841-4 0  9999
2 87333  66.5372 145.7539 0035081 264.5548  95.1524 13.85789762287874
0 TBA - TO BE ASSIGNED
1 87334U          19212.43543715 -.00000719 +00000+0 -10233-2 0  9991
2 87334  89.9711 272.2463 0079176  39.2335 321.4521 13.55945244 68265
0 TBA - TO BE ASSIGNED
1 87335U          19212.18105882 +.00001417 +00000+0 +19519-2 0  9993
2 87335  89.9624 271.9578 0083989  30.2504 330.3460 13.56519334 68245
0 TBA - TO BE ASSIGNED
1 87342U          19211.69600605 -.00000790 +00000+0 -10193-1 0  9992
2 87342 102.4402 102.8859 0833582 343.3390  14.1682 11.27980531233126
0 TBA - TO BE ASSIGNED
1 87350U          19212.20395377 +.00000103 +00000+0 +48630-4 0  9992
2 87350  98.0954 119.5348 0253133 279.6531  77.6140 14.22658001295067
0 TBA - TO BE ASSIGNED
1 87359U          19211.65141720 +.00000095 +00000+0 +19475-3 0  9994
2 87359  65.8508 312.8327 0144595 306.7408  52.0443 13.66604473284831
0 TBA - TO BE ASSIGNED
1 87405U          19212.34101747 +.00001193 +00000+0 +97797-3 0  9991
2 87405  82.7585  76.2002 0052508 128.7100 231.8775 13.88027894287827
0 TBA - TO BE ASSIGNED
1 87415U          19212.23512968 +.00000571 +00000+0 +57117-3 0  9992
2 87415  65.3563 306.2007 0031570 205.2553 154.6970 13.85689863287243
0 TBA - TO BE ASSIGNED
1 87426U          19212.13906543 +.00000560 +00000+0 +34270-3 0  9992
2 87426  65.8108  33.7469 0069317  66.4986  47.5279 14.12500993292858
0 TBA - TO BE ASSIGNED
1 87433U          19212.28693118 +.00000076 +00000+0 +23946-3 0  9997
2 87433 100.2986 331.1999 0046911  67.9933 292.6166 13.35084924121685
0 TBA - TO BE ASSIGNED
1 87448U          19211.59557161 +.00001010 +00000+0 +95297-3 0  9990
2 87448 100.4139 122.7734 0072369  63.7127 297.1436 13.82983639286921
0 TBA - TO BE ASSIGNED
1 87456U          19211.66274395 -.00000016 +00000+0 +21187-4 0  9996
2 87456  65.7943 312.3669 0613157  94.0180 273.1170 13.85323844287303
0 TBA - TO BE ASSIGNED
1 87468U          19212.24637107 +.00000633 +00000+0 +84944-4 0  9992
2 87468  74.0146 182.2382 0069249 179.8188 180.3026 14.80141156134677
0 TBA - TO BE ASSIGNED
1 87501U          19212.42045881 +.00002252 +00000+0 +75402-3 0  9999
2 87501  74.0357 234.9716 0019799 167.1589 193.0073 14.37814406132606
0 TBA - TO BE ASSIGNED
1 87517U          19212.00460715 -.00000007 +00000+0 +29505-4 0  9998
2 87517  65.8282  35.0569 0738172 330.5748 102.0637 13.45063227278916
0 TBA - TO BE ASSIGNED
1 87518U          19212.45021493 +.00018717 +00000+0 +72176-3 0  9991
2 87518  65.7940  18.7049 0010627 298.8060  61.2012 15.26339101311110
0 TBA - TO BE ASSIGNED
1 87520U          19212.13582298 +.00001025 +00000+0 +23894-2 0  9990
2 87520 101.6118 186.4266 0213977   7.9624 352.4798 13.19678970272798
0 TBA - TO BE ASSIGNED
1 87553U          19212.32410595 +.00000004 +00000+0 +34496-4 0  9995
2 87553  65.6722 146.4879 0742688 174.8355 186.0934 13.41333871278412
0 TBA - TO BE ASSIGNED
1 87556U          19212.21691714 +.00000631 +00000+0 +65098-4 0  9998
2 87556  97.8460 298.5596 0104277  76.2771 285.0029 14.89914289266973
0 TBA - TO BE ASSIGNED
1 87561U          19212.09914538 -.00000081 +00000+0 -27521-3 0  9991
2 87561 102.2924 275.7168 0175028 208.8659 267.0746 12.32230038255879
0 TBA - TO BE ASSIGNED
1 87565U          19212.27318570 -.00000125 +00000+0 -42218-4 0  9999
2 87565  99.9626 325.7202 0180584 308.0861  50.4131 14.00273071290490
0 TBA - TO BE ASSIGNED
1 87574U          19211.73811140 +.00004632 +00000+0 +78580-3 0  9995
2 87574  74.0053 226.1570 0055511  91.9626 268.7903 14.68490647189995
0 TBA - TO BE ASSIGNED
1 87590U          19211.88904028 +.00000242 +00000+0 +17044-3 0  9998
2 87590  99.0624 241.7228 0026698 337.9614 144.6220 14.07366649827744
0 TBA - TO BE ASSIGNED
1 87624U          19211.93828793 +.00000225 +00000+0 +61903-4 0  9991
2 87624  98.7606   6.3612 0131739 157.9536 202.7397 14.52054696241563
0 TBA - TO BE ASSIGNED
1 87664U          19212.00731806 +.00000048 +00000+0 +24032-3 0  9996
2 87664  99.7662 280.7749 0217115 266.0955 219.8001 13.05959664237550
0 TBA - TO BE ASSIGNED
1 87672U          19211.57164514 -.00000032 +00000+0 +84765-5 0  9997
2 87672  70.8619 295.1249 0063878 189.7720 170.2166 14.17661087293931
0 TBA - TO BE ASSIGNED
1 87681U          19212.28065776 +.00000125 +00000+0 +21527-3 0  9993
2 87681  66.7362 180.8710 0172868 256.6369 101.5373 13.66556123283603
0 TBA - TO BE ASSIGNED
1 87690U          19212.19813454 +.00000235 +00000+0 +64186-4 0  9998
2 87690  65.8009 124.4341 0673508 123.4849 243.2457 13.76766188285510
0 TBA - TO BE ASSIGNED
1 87692U          19212.31608459 +.00005250 +00000+0 +59593-3 0  9998
2 87692  70.8619 158.9783 0014938  32.6203 327.5876 14.86737165304189
0 TBA - TO BE ASSIGNED
1 87725U          19212.25464824 +.00000831 +00000+0 +28157-3 0  9996
2 87725  82.8961  54.0102 0031453 168.6117 191.5792 14.35439685297283
0 TBA - TO BE ASSIGNED
1 87727U          19212.25280452 +.00004045 +00000+0 +85635-3 0  9996
2 87727  70.9877 161.4639 0007492 162.3709 197.7698 14.59840167301108
0 TBA - TO BE ASSIGNED
1 87730U          19212.17549816 +.00000012 +00000+0 -31057-5 0  9995
2 87730  82.9464 154.8767 0030366   9.0694 351.1004 13.74134731265780
0 TBA - TO BE ASSIGNED
1 87732U          19212.38901612 +.00012855 +00000+0 +92082-3 0  9996
2 87732  98.7016  14.7224 0064559 262.1689  97.2201 15.02865045216852
0 TBA - TO BE ASSIGNED
1 87764U          19212.41766854 +.00000162 +00000+0 +63692-4 0  9996
2 87764  65.6736 219.9417 0485414 143.4196 337.5776 14.03041969290707
0 TBA - TO BE ASSIGNED
1 87771U          19212.14464466 +.00000023 +00000+0 +16847-3 0  9993
2 87771 100.5391 342.2999 0119758 245.5038 113.3549 13.18960488228328
0 TBA - TO BE ASSIGNED
1 87817U          19212.29927092 +.00000800 +00000+0 +78664-4 0  9998
2 87817  62.7670 155.5029 0143859 220.0500 138.9919 14.93666845337316
0 TBA - TO BE ASSIGNED
1 87818U          19212.08183246 +.00011320 +00000+0 +19286-2 0  9993
2 87818  61.8537 108.0740 3915025 124.4042 279.1004  7.48499301104133
0 TBA - TO BE ASSIGNED
1 87824U          19212.40135463 +.00006621 +00000+0 +15877-2 0  9994
2 87824  51.7835 226.0483 3937081 114.3589 291.3565  7.40347567122219
0 TBA - TO BE ASSIGNED
1 87841U          19212.38006861 +.00000846 +00000+0 +46749-3 0  9995
2 87841 102.8915  49.5199 0203120 351.4654   8.3065 14.06099411291277
0 TBA - TO BE ASSIGNED
1 87845U          19211.96082429 +.00000611 +00000+0 +12517-2 0  9991
2 87845  98.8515 245.0572 0594492 180.6043 179.4403 12.83709065266250
0 TBA - TO BE ASSIGNED
1 87878U          19212.33833665 +.00000292 +00000+0 +13593-3 0  9996
2 87878  99.1693 164.7861 0042038 154.9173 205.4061 14.28062968278446
0 TBA - TO BE ASSIGNED
1 87942U          19211.74244392 +.00000472 +00000+0 +60646-4 0  9997
2 87942  99.1016  28.6106 0147844 307.7200 106.7806 14.80189739300368
0 TBA - TO BE ASSIGNED
1 87970U          19212.29442351 +.00006511 +00000+0 +41083-3 0  9997
2 87970  99.0300 334.2671 0046272  58.1140 302.4574 15.08657649257123
0 TBA - TO BE ASSIGNED
1 87972U          19211.69255327 +.00001238 +00000+0 +47943-3 0  9999
2 87972  98.8091 117.6425 0183245 327.6054  31.3978 14.23145809243249
0 TBA - TO BE ASSIGNED
1 87991U          19212.27889183 -.00000153 +00000+0 -40726-3 0  9997
2 87991  28.6254 243.9488 0933227 116.8774 253.0163 12.29258619236175
0 TBA - TO BE ASSIGNED
1 87997U          19212.46400079 +.00031993 +32121-5 +12532-2 0  9999
2 87997  63.1757 303.0075 1686422   9.9370 353.0943 12.05877075225622
0 TBA - TO BE ASSIGNED
1 88049U          19211.81988976 -.00000040 +00000+0 +22896-4 0  9994
2 88049  64.6169  90.0673 5423204  58.1262   2.9900  4.30587849 89401
0 TBA - TO BE ASSIGNED
1 88079U          19212.09019559 +.00018082 +00000+0 +22969-2 0  9993
2 88079  20.7330  40.4134 4851079 321.9190  12.1017  5.88802733 87577
